ICEYE-X40               
1 60549U 24149CK  26191.14745577  .00001337  00000+0  11806-3 0  9995
2 60549  97.6804 267.2722 0004527  14.3436 345.7914 14.98045385103517
ICEYE-X49               
1 62384U 24247H   26191.60247529  .00002339  00000+0  14220-3 0  9994
2 62384  44.9969 232.3284 0001310 239.1524 120.9224 15.13600626 85723
ICEYE-X47               
1 62389U 24247N   26191.24805528  .00001965  00000+0  12215-3 0  9994
2 62389  44.9950 233.8127 0001896 323.2378  36.8369 15.13473764 85671
ICEYE-X42               
1 62698U 25009CT  26190.94454288  .00001141  00000+0  11850-3 0  9993
2 62698  97.7369 268.8517 0001580  78.4032 281.7365 14.91841595 80680
ICEYE-X41               
1 62700U 25009CV  26192.20285566  .00001394  00000+0  12652-3 0  9990
2 62700  97.7063 271.3808 0000596 343.1380  16.9822 14.96900307 81006
ICEYE-X45               
1 62705U 25009DA  26192.19767488  .00004177  00000+0  33336-3 0  9995
2 62705  97.8401 279.0801 0001228  79.4304 280.7057 15.00847826 81287
ICEYE-X44               
1 62707U 25009DC  26192.16315391  .00002070  00000+0  18895-3 0  9999
2 62707  97.7052 270.9101 0002613  80.4510 279.7007 14.96150707103527
ICEYE-X51               
1 63257U 25052AZ  26192.19201870  .00002655  00000+0  21340-3 0  9995
2 63257  97.7606  87.2434 0002066  68.7677 291.3767 15.00891368 72402
ICEYE-X46               
1 63258U 25052BA  26191.17402545  .00001572  00000+0  14759-3 0  9998
2 63258  97.6866  82.6243 0001648  85.4311 274.7099 14.95353960 72084
ICEYE-X54               
1 64570U 25135AU  26192.19261237  .00001926  00000+0  18271-3 0  9998
2 64570  97.7742 306.3855 0001763 195.6972 164.4194 14.94717364 57485
ICEYE-X52               
1 64572U 25135AW  26192.18758615  .00001203  00000+0  11923-3 0  9995
2 64572  97.7766 306.1754 0000917 204.8184 155.2992 14.93642830 57463
ICEYE-X56               
1 64574U 25135AY  26192.24968729  .00001765  00000+0  16362-3 0  9998
2 64574  97.7756 307.0227 0001148 214.6442 145.4704 14.95746330 57523
ICEYE-X57               
1 64578U 25135BC  26192.20110861  .00002708  00000+0  21770-3 0  9991
2 64578  97.8009 308.7410 0002130  60.2668 299.8767 15.00862898 57627
ICEYE-X55               
1 64581U 25135BF  26192.18917936  .00001986  00000+0  18531-3 0  9998
2 64581  97.7756 306.7908 0001803 255.2480 104.8541 14.95345766 57508
