{"fetched_at":"2026-07-11T09:24:23.728Z","source":"https://celestrak.org/NORAD/elements/gp.php?NAME=ICEYE&FORMAT=JSON","constellation":"iceye","records":[{"OBJECT_NAME":"ICEYE-X40","OBJECT_ID":"2024-149CK","EPOCH":"2026-07-10T03:32:20.178528","CLASSIFICATION_TYPE":"U","MEAN_MOTION":14.98045385,"ECCENTRICITY":0.00045272,"INCLINATION":97.6804,"RA_OF_ASC_NODE":267.2722,"ARG_OF_PERICENTER":14.3436,"MEAN_ANOMALY":345.7914,"EPHEMERIS_TYPE":0,"NORAD_CAT_ID":60549,"ELEMENT_SET_NO":999,"REV_AT_EPOCH":10351,"BSTAR":0.00011805953,"MEAN_MOTION_DOT":0.00001337,"MEAN_MOTION_DDOT":0},{"OBJECT_NAME":"ICEYE-X49","OBJECT_ID":"2024-247H","EPOCH":"2026-07-10T14:27:33.865056","CLASSIFICATION_TYPE":"U","MEAN_MOTION":15.13600626,"ECCENTRICITY":0.000131,"INCLINATION":44.9969,"RA_OF_ASC_NODE":232.3284,"ARG_OF_PERICENTER":239.1524,"MEAN_ANOMALY":120.9224,"EPHEMERIS_TYPE":0,"NORAD_CAT_ID":62384,"ELEMENT_SET_NO":999,"REV_AT_EPOCH":8572,"BSTAR":0.0001422,"MEAN_MOTION_DOT":0.00002339,"MEAN_MOTION_DDOT":0},{"OBJECT_NAME":"ICEYE-X47","OBJECT_ID":"2024-247N","EPOCH":"2026-07-10T05:57:11.976192","CLASSIFICATION_TYPE":"U","MEAN_MOTION":15.13473764,"ECCENTRICITY":0.00018963,"INCLINATION":44.995,"RA_OF_ASC_NODE":233.8127,"ARG_OF_PERICENTER":323.2378,"MEAN_ANOMALY":36.8369,"EPHEMERIS_TYPE":0,"NORAD_CAT_ID":62389,"ELEMENT_SET_NO":999,"REV_AT_EPOCH":8567,"BSTAR":0.00012215385,"MEAN_MOTION_DOT":0.00001965,"MEAN_MOTION_DDOT":0},{"OBJECT_NAME":"ICEYE-X42","OBJECT_ID":"2025-009CT","EPOCH":"2026-07-09T22:40:08.504832","CLASSIFICATION_TYPE":"U","MEAN_MOTION":14.91841595,"ECCENTRICITY":0.00015807,"INCLINATION":97.7369,"RA_OF_ASC_NODE":268.8517,"ARG_OF_PERICENTER":78.4032,"MEAN_ANOMALY":281.7365,"EPHEMERIS_TYPE":0,"NORAD_CAT_ID":62698,"ELEMENT_SET_NO":999,"REV_AT_EPOCH":8068,"BSTAR":0.00011850349,"MEAN_MOTION_DOT":0.00001141,"MEAN_MOTION_DDOT":0},{"OBJECT_NAME":"ICEYE-X41","OBJECT_ID":"2025-009CV","EPOCH":"2026-07-11T04:52:06.729024","CLASSIFICATION_TYPE":"U","MEAN_MOTION":14.96900307,"ECCENTRICITY":0.0000596,"INCLINATION":97.7063,"RA_OF_ASC_NODE":271.3808,"ARG_OF_PERICENTER":343.138,"MEAN_ANOMALY":16.9822,"EPHEMERIS_TYPE":0,"NORAD_CAT_ID":62700,"ELEMENT_SET_NO":999,"REV_AT_EPOCH":8100,"BSTAR":0.00012652,"MEAN_MOTION_DOT":0.00001394,"MEAN_MOTION_DDOT":0},{"OBJECT_NAME":"ICEYE-X45","OBJECT_ID":"2025-009DA","EPOCH":"2026-07-11T04:44:39.109632","CLASSIFICATION_TYPE":"U","MEAN_MOTION":15.00847826,"ECCENTRICITY":0.0001228,"INCLINATION":97.8401,"RA_OF_ASC_NODE":279.0801,"ARG_OF_PERICENTER":79.4304,"MEAN_ANOMALY":280.7057,"EPHEMERIS_TYPE":0,"NORAD_CAT_ID":62705,"ELEMENT_SET_NO":999,"REV_AT_EPOCH":8128,"BSTAR":0.00033336,"MEAN_MOTION_DOT":0.00004177,"MEAN_MOTION_DDOT":0},{"OBJECT_NAME":"ICEYE-X44","OBJECT_ID":"2025-009DC","EPOCH":"2026-07-11T03:54:56.497824","CLASSIFICATION_TYPE":"U","MEAN_MOTION":14.96150707,"ECCENTRICITY":0.0002613,"INCLINATION":97.7052,"RA_OF_ASC_NODE":270.9101,"ARG_OF_PERICENTER":80.451,"MEAN_ANOMALY":279.7007,"EPHEMERIS_TYPE":0,"NORAD_CAT_ID":62707,"ELEMENT_SET_NO":999,"REV_AT_EPOCH":10352,"BSTAR":0.00018895,"MEAN_MOTION_DOT":0.0000207,"MEAN_MOTION_DDOT":0},{"OBJECT_NAME":"ICEYE-X51","OBJECT_ID":"2025-052AZ","EPOCH":"2026-07-11T04:36:30.415680","CLASSIFICATION_TYPE":"U","MEAN_MOTION":15.00891368,"ECCENTRICITY":0.0002066,"INCLINATION":97.7606,"RA_OF_ASC_NODE":87.2434,"ARG_OF_PERICENTER":68.7677,"MEAN_ANOMALY":291.3767,"EPHEMERIS_TYPE":0,"NORAD_CAT_ID":63257,"ELEMENT_SET_NO":999,"REV_AT_EPOCH":7240,"BSTAR":0.0002134,"MEAN_MOTION_DOT":0.00002655,"MEAN_MOTION_DDOT":0},{"OBJECT_NAME":"ICEYE-X46","OBJECT_ID":"2025-052BA","EPOCH":"2026-07-10T04:10:35.798880","CLASSIFICATION_TYPE":"U","MEAN_MOTION":14.9535396,"ECCENTRICITY":0.0001648,"INCLINATION":97.6866,"RA_OF_ASC_NODE":82.6243,"ARG_OF_PERICENTER":85.4311,"MEAN_ANOMALY":274.7099,"EPHEMERIS_TYPE":0,"NORAD_CAT_ID":63258,"ELEMENT_SET_NO":999,"REV_AT_EPOCH":7208,"BSTAR":0.00014759244,"MEAN_MOTION_DOT":0.00001572,"MEAN_MOTION_DDOT":0},{"OBJECT_NAME":"ICEYE-X54","OBJECT_ID":"2025-135AU","EPOCH":"2026-07-11T04:37:21.708768","CLASSIFICATION_TYPE":"U","MEAN_MOTION":14.94717364,"ECCENTRICITY":0.0001763,"INCLINATION":97.7742,"RA_OF_ASC_NODE":306.3855,"ARG_OF_PERICENTER":195.6972,"MEAN_ANOMALY":164.4194,"EPHEMERIS_TYPE":0,"NORAD_CAT_ID":64570,"ELEMENT_SET_NO":999,"REV_AT_EPOCH":5748,"BSTAR":0.00018271,"MEAN_MOTION_DOT":0.00001926,"MEAN_MOTION_DDOT":0},{"OBJECT_NAME":"ICEYE-X52","OBJECT_ID":"2025-135AW","EPOCH":"2026-07-11T04:30:07.443360","CLASSIFICATION_TYPE":"U","MEAN_MOTION":14.9364283,"ECCENTRICITY":0.0000917,"INCLINATION":97.7766,"RA_OF_ASC_NODE":306.1754,"ARG_OF_PERICENTER":204.8184,"MEAN_ANOMALY":155.2992,"EPHEMERIS_TYPE":0,"NORAD_CAT_ID":64572,"ELEMENT_SET_NO":999,"REV_AT_EPOCH":5746,"BSTAR":0.00011923,"MEAN_MOTION_DOT":0.00001203,"MEAN_MOTION_DDOT":0},{"OBJECT_NAME":"ICEYE-X56","OBJECT_ID":"2025-135AY","EPOCH":"2026-07-11T05:59:32.981856","CLASSIFICATION_TYPE":"U","MEAN_MOTION":14.9574633,"ECCENTRICITY":0.0001148,"INCLINATION":97.7756,"RA_OF_ASC_NODE":307.0227,"ARG_OF_PERICENTER":214.6442,"MEAN_ANOMALY":145.4704,"EPHEMERIS_TYPE":0,"NORAD_CAT_ID":64574,"ELEMENT_SET_NO":999,"REV_AT_EPOCH":5752,"BSTAR":0.00016362,"MEAN_MOTION_DOT":0.00001765,"MEAN_MOTION_DDOT":0},{"OBJECT_NAME":"ICEYE-X57","OBJECT_ID":"2025-135BC","EPOCH":"2026-07-11T04:49:35.783904","CLASSIFICATION_TYPE":"U","MEAN_MOTION":15.00862898,"ECCENTRICITY":0.000213,"INCLINATION":97.8009,"RA_OF_ASC_NODE":308.741,"ARG_OF_PERICENTER":60.2668,"MEAN_ANOMALY":299.8767,"EPHEMERIS_TYPE":0,"NORAD_CAT_ID":64578,"ELEMENT_SET_NO":999,"REV_AT_EPOCH":5762,"BSTAR":0.0002177,"MEAN_MOTION_DOT":0.00002708,"MEAN_MOTION_DDOT":0},{"OBJECT_NAME":"ICEYE-X55","OBJECT_ID":"2025-135BF","EPOCH":"2026-07-11T04:32:25.096704","CLASSIFICATION_TYPE":"U","MEAN_MOTION":14.95345766,"ECCENTRICITY":0.0001803,"INCLINATION":97.7756,"RA_OF_ASC_NODE":306.7908,"ARG_OF_PERICENTER":255.248,"MEAN_ANOMALY":104.8541,"EPHEMERIS_TYPE":0,"NORAD_CAT_ID":64581,"ELEMENT_SET_NO":999,"REV_AT_EPOCH":5750,"BSTAR":0.00018531,"MEAN_MOTION_DOT":0.00001986,"MEAN_MOTION_DDOT":0}]}
